[{"OBJECT_NAME":"TRANSPORTER-12 OBJECT AZ","OBJECT_ID":"2025-009AZ","EPOCH":"2026-03-09T17:02:46.667040","MEAN_MOTION":15.30349724,"ECCENTRICITY":9.87e-5,"INCLINATION":97.3981,"RA_OF_ASC_NODE":151.9913,"ARG_OF_PERICENTER":45.3581,"MEAN_ANOMALY":314.774,"EPHEMERIS_TYPE":0,"CLASSIFICATION_TYPE":"U","NORAD_CAT_ID":62656,"ELEMENT_SET_NO":999,"REV_AT_EPOCH":6379,"BSTAR":0.00054902545,"MEAN_MOTION_DOT":0.00016057,"MEAN_MOTION_DDOT":0},{"OBJECT_NAME":"STARLINK-35813","OBJECT_ID":"2025-254P","EPOCH":"2026-03-09T17:17:01.614912","MEAN_MOTION":15.301753,"ECCENTRICITY":0.00010649,"INCLINATION":53.1597,"RA_OF_ASC_NODE":232.0746,"ARG_OF_PERICENTER":87.3325,"MEAN_ANOMALY":272.7798,"EPHEMERIS_TYPE":0,"CLASSIFICATION_TYPE":"U","NORAD_CAT_ID":66361,"ELEMENT_SET_NO":999,"REV_AT_EPOCH":1898,"BSTAR":0.00090758873,"MEAN_MOTION_DOT":0.00026597,"MEAN_MOTION_DDOT":0}]
